{
  "norad_id": 51729,
  "name": "STARLINK-3523",
  "history": [
    {
      "epoch": "2026-03-28T16:42:27.284832",
      "apogee_km": 540.6131490702637,
      "perigee_km": 538.8641717457986,
      "latitude_deg": -41.63989246868297,
      "longitude_deg": 139.7303164799232,
      "semi_major_axis_km": 6917.875660408031,
      "eccentricity": 0.00012641,
      "inclination_deg": 53.2143,
      "raan_deg": 233.7976,
      "arg_perigee_deg": 87.8988,
      "mean_anomaly_deg": 272.2148,
      "mean_motion_rev_day": 15.08841547
    }
  ]
}