{"fetched_at":"2026-03-30T13:17:50Z","count":15418,"tles":[{"name":"STARLINK-3523","line1":"1 51729U 22016R   26087.69614913 -.00000734  00000+0 -28024-4 0  9992","line2":"2 51729  53.2143 233.7976 0001264  87.8988 272.2148 15.08841547226438","category":"Starlink"}]}